ONEWEB-0598             
1 55154U 23004Q   23059.33334491 -.00948685  00000+0 -32167+0 0  9997
2 55154  86.9254 265.3742 0012459  55.0570   1.2688 14.39898971  7380
ONEWEB-0598             
1 55154U 23004Q   23059.58334491 -.00964235  00000+0 -33045+0 0  9999
2 55154  86.9293 265.2842 0012347  55.4091 215.7677 14.39419247  1302
ONEWEB-0598             
1 55154U 23004Q   23059.91667824 -.00911903  00000+0 -31588+0 0  9999
2 55154  86.9348 265.1633 0012491  53.9561 143.0229 14.38710015  1307
ONEWEB-0598             
1 55154U 23004Q   23060.58334491 -.00955215  00000+0 -34054+0 0  9990
2 55154  86.9460 264.9257 0012260  51.8247 354.3017 14.37413209  7563
ONEWEB-0598             
1 55154U 23004Q   23060.91667824 -.00910948  00000+0 -32838+0 0  9998
2 55154  86.9515 264.8061 0012174  51.0255 278.4961 14.36709619  1303
ONEWEB-0598             
1 55154U 23004Q   23061.83334491 -.00947076  00000+0 -35480+0 0  9999
2 55154  86.9666 264.4812 0012131  48.4487 336.2261 14.34885650  1304
ONEWEB-0598             
1 55154U 23004Q   23062.58334491 -.00967723  00000+0 -37374+0 0  9997
2 55154  86.9788 264.2184 0012087  47.6944 246.6841 14.33408018  1304
ONEWEB-0598             
1 55154U 23004Q   23062.58334491 -.00967723  00000+0 -37374+0 0  9997
2 55154  86.9788 264.2184 0012087  47.6944 246.6841 14.33408018  7850
ONEWEB-0598             
1 55154U 23004Q   23062.91667824 -.00903942  00000+0 -35254+0 0  9991
2 55154  86.9844 264.1007 0012291  46.9404 166.0322 14.32696899  1304
